{"type":"FeatureCollection","metadata":{"version":"0.5","source":{"name":"OpenStreetMap contributors","url":"https://www.openstreetmap.org/copyright","license":"Open Database License (ODbL) 1.0","acquired":"2026-08-23","referenceEra":"modern_reference"},"bounds":[118.285,24.44,118.37,24.5],"scale":"local Guningtou visitor context","simplificationToleranceDegrees":0.000025,"note":"High-resolution land polygons assembled from OSM mean-high-water coastline ways."},"features":[{"type":"Feature","properties":{"id":"osm-coast-guningtou-land","layer":"coastline","category":"land","referenceEra":"modern_reference","source":"OpenStreetMap contributors","license":"ODbL-1.0"},"geometry":{"type":"Polygon","coordinates":[[[118.309264,24.44],[118.308994,24.44213],[118.30877,24.442749],[118.308133,24.444087],[118.308034,24.44468],[118.30715,24.44719],[118.306635,24.448261],[118.30565,24.44997],[118.30536,24.45022],[118.305548,24.450337],[118.304851,24.451344],[118.304562,24.451198],[118.304387,24.451597],[118.304633,24.451752],[118.303927,24.452787],[118.303425,24.453389],[118.302892,24.45414],[118.302617,24.454973],[118.302146,24.455676],[118.302384,24.455847],[118.302167,24.456608],[118.301593,24.457408],[118.301553,24.457647],[118.301792,24.459226],[118.30206,24.459997],[118.302659,24.461019],[118.302943,24.461706],[118.30168,24.46256],[118.3011,24.4628],[118.29967,24.46365],[118.298032,24.464032],[118.296103,24.464857],[118.294536,24.465993],[118.293508,24.466679],[118.29198,24.467459],[118.290468,24.468298],[118.289249,24.469225],[118.288404,24.470198],[118.288485,24.470452],[118.288457,24.470675],[118.288308,24.471075],[118.288314,24.47129],[118.28856,24.471522],[118.289141,24.471699],[118.289522,24.471987],[118.289759,24.472368],[118.289946,24.472979],[118.290056,24.474373],[118.290199,24.474892],[118.290429,24.475375],[118.291281,24.476354],[118.291676,24.47672],[118.292225,24.477818],[118.292318,24.478227],[118.292709,24.478561],[118.29355,24.478773],[118.294277,24.479022],[118.29485,24.47994],[118.29516,24.480312],[118.29652,24.48037],[118.29707,24.48065],[118.29819,24.48068],[118.29903,24.48084],[118.299392,24.481078],[118.299729,24.481392],[118.29984,24.48163],[118.29995,24.48241],[118.30049,24.48294],[118.30116,24.48373],[118.30199,24.48427],[118.30253,24.4848],[118.30266,24.48506],[118.303187,24.485686],[118.304189,24.485878],[118.30472,24.48628],[118.306392,24.487158],[118.308668,24.487049],[118.309573,24.487182],[118.310477,24.487512],[118.310736,24.487954],[118.310728,24.488576],[118.310453,24.488772],[118.310354,24.488996],[118.310604,24.489596],[118.310954,24.489866],[118.311405,24.490092],[118.31186,24.4901],[118.313205,24.489587],[118.314358,24.489839],[118.31499,24.4893],[118.31514,24.48905],[118.31543,24.4888],[118.31628,24.487864],[118.316429,24.487793],[118.31672,24.48794],[118.317259,24.488132],[118.317919,24.487519],[118.318313,24.487415],[118.31901,24.48685],[118.31916,24.4866],[118.31961,24.486217],[118.319953,24.485964],[118.320092,24.485994],[118.320261,24.485899],[118.320238,24.485739],[118.327404,24.478842],[118.330929,24.476237],[118.331232,24.475546],[118.331895,24.475373],[118.337198,24.471524],[118.34009,24.469792],[118.343839,24.467654],[118.34899,24.46544],[118.350601,24.464703],[118.350942,24.464507],[118.351182,24.464317],[118.351738,24.464555],[118.352224,24.464345],[118.35256,24.464312],[118.352884,24.464409],[118.353178,24.464649],[118.353608,24.464787],[118.35406,24.46482],[118.355318,24.464682],[118.356018,24.464351],[118.356116,24.463979],[118.356205,24.464297],[118.357817,24.463769],[118.359589,24.463237],[118.3603,24.46309],[118.361848,24.462587],[118.36342,24.46229],[118.364564,24.461881],[118.364671,24.461706],[118.364866,24.461813],[118.366512,24.461532],[118.367296,24.461459],[118.368205,24.461283],[118.368081,24.462272],[118.368044,24.462407],[118.367621,24.463146],[118.367713,24.463179],[118.367756,24.463096],[118.367725,24.463081],[118.368105,24.462315],[118.368239,24.46139],[118.368303,24.461389],[118.368311,24.46135],[118.368248,24.461337],[118.368263,24.461199],[118.36935,24.46105],[118.37,24.461004],[118.37,24.44],[118.285,24.44],[118.309264,24.44]]]}}]}
